{
  "type": "FeatureCollection",
  "features": [
    {
      "type": "Feature",
      "properties": {
        "norad_id": 35240,
        "name": "FENGYUN 1C DEB",
        "group": "fengyun-1c-debris",
        "lat": -78.48392342438422,
        "lon": 71.21044984802441,
        "alt_km": 827.5092935638113,
        "timestamp": "2025-12-08T23:34:04.257515+00:00",
        "meta_object_name": "FENGYUN 1C DEB",
        "meta_object_id": "1999-025DQY",
        "meta_epoch": "2025-12-07T21:01:45.903936",
        "meta_mean_motion": 14.23240567,
        "meta_eccentricity": 0.00458712,
        "meta_inclination": 99.3504,
        "meta_ra_of_asc_node": 304.0042,
        "meta_arg_of_pericenter": 165.9059,
        "meta_mean_anomaly": 194.3409,
        "meta_ephemeris_type": 0,
        "meta_classification_type": "U",
        "meta_norad_cat_id": 35240,
        "meta_element_set_no": 999,
        "meta_rev_at_epoch": 93095,
        "meta_bstar": 0.0030168303,
        "meta_mean_motion_dot": 6.857e-05,
        "meta_mean_motion_ddot": 0,
        "tle_line1": "1 35240U 99025DQY 25341.87622574  .00006857  00000+0  30168-2 0  9990",
        "tle_line2": "2 35240  99.3504 304.0042 0045871 165.9059 194.3409 14.23240567930959"
      },
      "geometry": {
        "type": "Point",
        "coordinates": [
          71.21044984802441,
          -78.48392342438422
        ]
      }
    },
    {
      "type": "Feature",
      "properties": {
        "norad_id": 35241,
        "name": "FENGYUN 1C DEB",
        "group": "fengyun-1c-debris",
        "lat": 47.14841445699259,
        "lon": 101.65691382508385,
        "alt_km": 877.5577575635689,
        "timestamp": "2025-12-08T23:34:04.257526+00:00",
        "meta_object_name": "FENGYUN 1C DEB",
        "meta_object_id": "1999-025DQZ",
        "meta_epoch": "2025-11-30T05:56:44.334240",
        "meta_mean_motion": 14.01843685,
        "meta_eccentricity": 0.01367336,
        "meta_inclination": 98.628,
        "meta_ra_of_asc_node": 263.9706,
        "meta_arg_of_pericenter": 244.1586,
        "meta_mean_anomaly": 114.5426,
        "meta_ephemeris_type": 0,
        "meta_classification_type": "U",
        "meta_norad_cat_id": 35241,
        "meta_element_set_no": 999,
        "meta_rev_at_epoch": 87431,
        "meta_bstar": 0.001716208,
        "meta_mean_motion_dot": 2.791e-05,
        "meta_mean_motion_ddot": 0,
        "tle_line1": "1 35241U 99025DQZ 25334.24773535  .00002791  00000+0  17162-2 0  9990",
        "tle_line2": "2 35241  98.6280 263.9706 0136733 244.1586 114.5426 14.01843685874312"
      },
      "geometry": {
        "type": "Point",
        "coordinates": [
          101.65691382508385,
          47.14841445699259
        ]
      }
    },
    {
      "type": "Feature",
      "properties": {
        "norad_id": 35242,
        "name": "FENGYUN 1C DEB",
        "group": "fengyun-1c-debris",
        "lat": 6.800165122436768,
        "lon": -143.29318211204753,
        "alt_km": 860.9261420078401,
        "timestamp": "2025-12-08T23:34:04.257536+00:00",
        "meta_object_name": "FENGYUN 1C DEB",
        "meta_object_id": "1999-025DRA",
        "meta_epoch": "2025-12-07T22:44:24.710208",
        "meta_mean_motion": 13.52325577,
        "meta_eccentricity": 0.030181,
        "meta_inclination": 99.9692,
        "meta_ra_of_asc_node": 34.4646,
        "meta_arg_of_pericenter": 200.6269,
        "meta_mean_anomaly": 340.0817,
        "meta_ephemeris_type": 0,
        "meta_classification_type": "U",
        "meta_norad_cat_id": 35242,
        "meta_element_set_no": 999,
        "meta_rev_at_epoch": 58062,
        "meta_bstar": 0.002283113,
        "meta_mean_motion_dot": 1.961e-05,
        "meta_mean_motion_ddot": 0,
        "tle_line1": "1 35242U 99025DRA 25341.94750822  .00001961  00000+0  22831-2 0  9997",
        "tle_line2": "2 35242  99.9692  34.4646 0301810 200.6269 340.0817 13.52325577580621"
      },
      "geometry": {
        "type": "Point",
        "coordinates": [
          -143.29318211204753,
          6.800165122436768
        ]
      }
    },
    {
      "type": "Feature",
      "properties": {
        "norad_id": 35243,
        "name": "FENGYUN 1C DEB",
        "group": "fengyun-1c-debris",
        "lat": -27.725957231538793,
        "lon": -123.29754136214815,
        "alt_km": 591.2947707699732,
        "timestamp": "2025-12-08T23:34:04.257546+00:00",
        "meta_object_name": "FENGYUN 1C DEB",
        "meta_object_id": "1999-025DRB",
        "meta_epoch": "2025-12-08T11:19:17.861664",
        "meta_mean_motion": 14.86660557,
        "meta_eccentricity": 0.00666581,
        "meta_inclination": 98.8795,
        "meta_ra_of_asc_node": 60.846,
        "meta_arg_of_pericenter": 270.6076,
        "meta_mean_anomaly": 88.7499,
        "meta_ephemeris_type": 0,
        "meta_classification_type": "U",
        "meta_norad_cat_id": 35243,
        "meta_element_set_no": 999,
        "meta_rev_at_epoch": 90937,
        "meta_bstar": 0.0023554815,
        "meta_mean_motion_dot": 0.00021773,
        "meta_mean_motion_ddot": 0,
        "tle_line1": "1 35243U 99025DRB 25342.47173451  .00021773  00000+0  23555-2 0  9991",
        "tle_line2": "2 35243  98.8795  60.8460 0066658 270.6076  88.7499 14.86660557909379"
      },
      "geometry": {
        "type": "Point",
        "coordinates": [
          -123.29754136214815,
          -27.725957231538793
        ]
      }
    },
    {
      "type": "Feature",
      "properties": {
        "norad_id": 35244,
        "name": "FENGYUN 1C DEB",
        "group": "fengyun-1c-debris",
        "lat": -15.905811380784655,
        "lon": -159.2550075489938,
        "alt_km": 829.6802573942514,
        "timestamp": "2025-12-08T23:34:04.257557+00:00",
        "meta_object_name": "FENGYUN 1C DEB",
        "meta_object_id": "1999-025DRC",
        "meta_epoch": "2025-12-08T02:09:19.738656",
        "meta_mean_motion": 14.06615485,
        "meta_eccentricity": 0.00718112,
        "meta_inclination": 98.8415,
        "meta_ra_of_asc_node": 22.4154,
        "meta_arg_of_pericenter": 170.3722,
        "meta_mean_anomaly": 189.8843,
        "meta_ephemeris_type": 0,
        "meta_classification_type": "U",
        "meta_norad_cat_id": 35244,
        "meta_element_set_no": 999,
        "meta_rev_at_epoch": 65756,
        "meta_bstar": 0.00070341265,
        "meta_mean_motion_dot": 1.151e-05,
        "meta_mean_motion_ddot": 0,
        "tle_line1": "1 35244U 99025DRC 25342.08981179  .00001151  00000+0  70341-3 0  9997",
        "tle_line2": "2 35244  98.8415  22.4154 0071811 170.3722 189.8843 14.06615485657563"
      },
      "geometry": {
        "type": "Point",
        "coordinates": [
          -159.2550075489938,
          -15.905811380784655
        ]
      }
    },
    {
      "type": "Feature",
      "properties": {
        "norad_id": 35245,
        "name": "FENGYUN 1C DEB",
        "group": "fengyun-1c-debris",
        "lat": 5.306108059173994,
        "lon": 67.59357146521889,
        "alt_km": 846.7269502676991,
        "timestamp": "2025-12-08T23:34:04.257567+00:00",
        "meta_object_name": "FENGYUN 1C DEB",
        "meta_object_id": "1999-025DRD",
        "meta_epoch": "2025-12-08T05:07:16.889952",
        "meta_mean_motion": 14.13044562,
        "meta_eccentricity": 0.00587269,
        "meta_inclination": 99.0842,
        "meta_ra_of_asc_node": 67.6653,
        "meta_arg_of_pericenter": 283.2611,
        "meta_mean_anomaly": 133.8561,
        "meta_ephemeris_type": 0,
        "meta_classification_type": "U",
        "meta_norad_cat_id": 35245,
        "meta_element_set_no": 999,
        "meta_rev_at_epoch": 87713,
        "meta_bstar": 0.0024614487,
        "meta_mean_motion_dot": 4.626e-05,
        "meta_mean_motion_ddot": 0,
        "tle_line1": "1 35245U 99025DRD 25342.21338993  .00004626  00000+0  24614-2 0  9994",
        "tle_line2": "2 35245  99.0842  67.6653 0058726 283.2611 133.8561 14.13044562877130"
      },
      "geometry": {
        "type": "Point",
        "coordinates": [
          67.59357146521889,
          5.306108059173994
        ]
      }
    },
    {
      "type": "Feature",
      "properties": {
        "norad_id": 36147,
        "name": "FENGYUN 1C DEB",
        "group": "fengyun-1c-debris",
        "lat": -37.859433584769754,
        "lon": -134.92813739224096,
        "alt_km": 890.066316625489,
        "timestamp": "2025-12-08T23:34:04.257577+00:00",
        "meta_object_name": "FENGYUN 1C DEB",
        "meta_object_id": "1999-025DRU",
        "meta_epoch": "2025-12-06T11:35:31.438464",
        "meta_mean_motion": 13.46487115,
        "meta_eccentricity": 0.04411963,
        "meta_inclination": 98.5268,
        "meta_ra_of_asc_node": 49.6332,
        "meta_arg_of_pericenter": 279.0005,
        "meta_mean_anomaly": 76.1459,
        "meta_ephemeris_type": 0,
        "meta_classification_type": "U",
        "meta_norad_cat_id": 36147,
        "meta_element_set_no": 999,
        "meta_rev_at_epoch": 59913,
        "meta_bstar": 0.0028331014,
        "meta_mean_motion_dot": 3.048e-05,
        "meta_mean_motion_ddot": 0,
        "tle_line1": "1 36147U 99025DRU 25340.48300276  .00003048  00000+0  28331-2 0  9993",
        "tle_line2": "2 36147  98.5268  49.6332 0441196 279.0005  76.1459 13.46487115599135"
      },
      "geometry": {
        "type": "Point",
        "coordinates": [
          -134.92813739224096,
          -37.859433584769754
        ]
      }
    }
  ]
}